[{"OBJECT_NAME":"SL-14 R/B","OBJECT_ID":"1986-006B","EPOCH":"2026-03-22T23:31:34.305888","MEAN_MOTION":14.86834042,"ECCENTRICITY":0.00754006,"INCLINATION":82.5241,"RA_OF_ASC_NODE":247.225,"ARG_OF_PERICENTER":227.915,"MEAN_ANOMALY":131.564,"EPHEMERIS_TYPE":0,"CLASSIFICATION_TYPE":"U","NORAD_CAT_ID":16496,"ELEMENT_SET_NO":999,"REV_AT_EPOCH":15118,"BSTAR":8.2598076e-5,"MEAN_MOTION_DOT":8.01e-6,"MEAN_MOTION_DDOT":0},{"OBJECT_NAME":"COSMOS 1743","OBJECT_ID":"1986-034A","EPOCH":"2026-03-23T04:26:03.046272","MEAN_MOTION":15.59614085,"ECCENTRICITY":0.00031304,"INCLINATION":82.5304,"RA_OF_ASC_NODE":59.6549,"ARG_OF_PERICENTER":190.2985,"MEAN_ANOMALY":169.8208,"EPHEMERIS_TYPE":0,"CLASSIFICATION_TYPE":"U","NORAD_CAT_ID":16719,"ELEMENT_SET_NO":999,"REV_AT_EPOCH":18235,"BSTAR":0.00056285601,"MEAN_MOTION_DOT":0.00044997,"MEAN_MOTION_DDOT":0},{"OBJECT_NAME":"SL-14 R/B","OBJECT_ID":"1986-046B","EPOCH":"2026-03-23T00:12:46.212480","MEAN_MOTION":14.8560277,"ECCENTRICITY":0.00230299,"INCLINATION":82.4794,"RA_OF_ASC_NODE":67.5929,"ARG_OF_PERICENTER":180.0739,"MEAN_ANOMALY":180.0478,"EPHEMERIS_TYPE":0,"CLASSIFICATION_TYPE":"U","NORAD_CAT_ID":16792,"ELEMENT_SET_NO":999,"REV_AT_EPOCH":12838,"BSTAR":5.4000621e-5,"MEAN_MOTION_DOT":4.94e-6,"MEAN_MOTION_DDOT":0},{"OBJECT_NAME":"SL-14 R/B","OBJECT_ID":"1986-055B","EPOCH":"2026-03-23T03:18:29.797632","MEAN_MOTION":14.85654229,"ECCENTRICITY":0.00173954,"INCLINATION":82.5178,"RA_OF_ASC_NODE":114.0316,"ARG_OF_PERICENTER":289.3007,"MEAN_ANOMALY":127.6672,"EPHEMERIS_TYPE":0,"CLASSIFICATION_TYPE":"U","NORAD_CAT_ID":16882,"ELEMENT_SET_NO":999,"REV_AT_EPOCH":12136,"BSTAR":4.8968958e-5,"MEAN_MOTION_DOT":4.49e-6,"MEAN_MOTION_DDOT":0},{"OBJECT_NAME":"AJISAI (EGS)","OBJECT_ID":"1986-061A","EPOCH":"2026-03-23T06:57:00.874944","MEAN_MOTION":12.44515661,"ECCENTRICITY":0.0011313,"INCLINATION":50.0099,"RA_OF_ASC_NODE":51.5262,"ARG_OF_PERICENTER":322.0817,"MEAN_ANOMALY":117.2445,"EPHEMERIS_TYPE":0,"CLASSIFICATION_TYPE":"U","NORAD_CAT_ID":16908,"ELEMENT_SET_NO":999,"REV_AT_EPOCH":46969,"BSTAR":-7.3607421e-5,"MEAN_MOTION_DOT":-1.08e-6,"MEAN_MOTION_DDOT":0},{"OBJECT_NAME":"SL-14 R/B","OBJECT_ID":"1987-024B","EPOCH":"2026-03-23T00:53:52.255968","MEAN_MOTION":14.86144368,"ECCENTRICITY":0.00173078,"INCLINATION":82.5247,"RA_OF_ASC_NODE":80.2142,"ARG_OF_PERICENTER":212.3688,"MEAN_ANOMALY":147.6468,"EPHEMERIS_TYPE":0,"CLASSIFICATION_TYPE":"U","NORAD_CAT_ID":17567,"ELEMENT_SET_NO":999,"REV_AT_EPOCH":9011,"BSTAR":5.3102275e-5,"MEAN_MOTION_DOT":4.91e-6,"MEAN_MOTION_DDOT":0},{"OBJECT_NAME":"COSMOS 1833","OBJECT_ID":"1987-027A","EPOCH":"2026-03-23T00:39:07.449120","MEAN_MOTION":14.130502,"ECCENTRICITY":0.00235683,"INCLINATION":70.9186,"RA_OF_ASC_NODE":297.9865,"ARG_OF_PERICENTER":195.171,"MEAN_ANOMALY":164.8707,"EPHEMERIS_TYPE":0,"CLASSIFICATION_TYPE":"U","NORAD_CAT_ID":17589,"ELEMENT_SET_NO":999,"REV_AT_EPOCH":1220,"BSTAR":-0.00011631786,"MEAN_MOTION_DOT":-2.66e-6,"MEAN_MOTION_DDOT":0},{"OBJECT_NAME":"SL-16 R/B","OBJECT_ID":"1987-027B","EPOCH":"2026-03-23T04:10:26.008032","MEAN_MOTION":14.17166065,"ECCENTRICITY":0.00029549,"INCLINATION":70.9994,"RA_OF_ASC_NODE":248.0776,"ARG_OF_PERICENTER":110.5729,"MEAN_ANOMALY":249.5712,"EPHEMERIS_TYPE":0,"CLASSIFICATION_TYPE":"U","NORAD_CAT_ID":17590,"ELEMENT_SET_NO":999,"REV_AT_EPOCH":1725,"BSTAR":-7.4850367e-5,"MEAN_MOTION_DOT":-1.99e-6,"MEAN_MOTION_DDOT":0},{"OBJECT_NAME":"SL-14 R/B","OBJECT_ID":"1987-038B","EPOCH":"2026-03-22T13:37:28.471296","MEAN_MOTION":14.85380208,"ECCENTRICITY":0.00205738,"INCLINATION":82.4981,"RA_OF_ASC_NODE":284.6734,"ARG_OF_PERICENTER":119.8947,"MEAN_ANOMALY":240.4316,"EPHEMERIS_TYPE":0,"CLASSIFICATION_TYPE":"U","NORAD_CAT_ID":17912,"ELEMENT_SET_NO":999,"REV_AT_EPOCH":8114,"BSTAR":4.9145529e-5,"MEAN_MOTION_DOT":4.49e-6,"MEAN_MOTION_DDOT":0},{"OBJECT_NAME":"COSMOS 1844","OBJECT_ID":"1987-041A","EPOCH":"2026-03-23T04:33:01.362240","MEAN_MOTION":14.14552754,"ECCENTRICITY":0.00306972,"INCLINATION":70.9012,"RA_OF_ASC_NODE":5.7014,"ARG_OF_PERICENTER":358.2402,"MEAN_ANOMALY":1.8607,"EPHEMERIS_TYPE":0,"CLASSIFICATION_TYPE":"U","NORAD_CAT_ID":17973,"ELEMENT_SET_NO":999,"REV_AT_EPOCH":549,"BSTAR":0.00014818626,"MEAN_MOTION_DOT":2.37e-6,"MEAN_MOTION_DDOT":0},{"OBJECT_NAME":"SL-14 R/B","OBJECT_ID":"1987-055B","EPOCH":"2026-03-23T05:10:46.768512","MEAN_MOTION":14.85643096,"ECCENTRICITY":0.00199394,"INCLINATION":82.5017,"RA_OF_ASC_NODE":336.2861,"ARG_OF_PERICENTER":332.9014,"MEAN_ANOMALY":27.1159,"EPHEMERIS_TYPE":0,"CLASSIFICATION_TYPE":"U","NORAD_CAT_ID":18153,"ELEMENT_SET_NO":999,"REV_AT_EPOCH":7194,"BSTAR":5.2697246e-5,"MEAN_MOTION_DOT":4.82e-6,"MEAN_MOTION_DDOT":0},{"OBJECT_NAME":"COSMOS 1867","OBJECT_ID":"1987-060A","EPOCH":"2026-03-23T04:53:44.439648","MEAN_MOTION":14.31505021,"ECCENTRICITY":0.00146962,"INCLINATION":65.0091,"RA_OF_ASC_NODE":268.8571,"ARG_OF_PERICENTER":279.4765,"MEAN_ANOMALY":80.4658,"EPHEMERIS_TYPE":0,"CLASSIFICATION_TYPE":"U","NORAD_CAT_ID":18187,"ELEMENT_SET_NO":999,"REV_AT_EPOCH":2187,"BSTAR":2.5457425e-5,"MEAN_MOTION_DOT":-3.2e-7,"MEAN_MOTION_DDOT":0},{"OBJECT_NAME":"SL-14 R/B","OBJECT_ID":"1988-001B","EPOCH":"2026-03-23T00:14:26.860704","MEAN_MOTION":14.85542583,"ECCENTRICITY":0.00178207,"INCLINATION":82.5163,"RA_OF_ASC_NODE":182.8357,"ARG_OF_PERICENTER":189.6403,"MEAN_ANOMALY":170.4474,"EPHEMERIS_TYPE":0,"CLASSIFICATION_TYPE":"U","NORAD_CAT_ID":18749,"ELEMENT_SET_NO":999,"REV_AT_EPOCH":4400,"BSTAR":6.3116259e-5,"MEAN_MOTION_DOT":5.71e-6,"MEAN_MOTION_DDOT":0},{"OBJECT_NAME":"COSMOS 1933","OBJECT_ID":"1988-020A","EPOCH":"2026-03-22T20:11:46.983264","MEAN_MOTION":15.18102185,"ECCENTRICITY":0.00049521,"INCLINATION":82.5117,"RA_OF_ASC_NODE":237.8956,"ARG_OF_PERICENTER":141.1355,"MEAN_ANOMALY":219.0236,"EPHEMERIS_TYPE":0,"CLASSIFICATION_TYPE":"U","NORAD_CAT_ID":18958,"ELEMENT_SET_NO":999,"REV_AT_EPOCH":5222,"BSTAR":0.00028357396,"MEAN_MOTION_DOT":5.812e-5,"MEAN_MOTION_DDOT":0},{"OBJECT_NAME":"SL-3 R/B","OBJECT_ID":"1988-032B","EPOCH":"2026-03-23T05:28:32.530656","MEAN_MOTION":15.20055452,"ECCENTRICITY":0.00257195,"INCLINATION":97.5214,"RA_OF_ASC_NODE":65.4343,"ARG_OF_PERICENTER":182.6369,"MEAN_ANOMALY":177.4735,"EPHEMERIS_TYPE":0,"CLASSIFICATION_TYPE":"U","NORAD_CAT_ID":19046,"ELEMENT_SET_NO":999,"REV_AT_EPOCH":5416,"BSTAR":0.00028982799,"MEAN_MOTION_DOT":6.237e-5,"MEAN_MOTION_DDOT":0},{"OBJECT_NAME":"SL-16 R/B","OBJECT_ID":"1988-039B","EPOCH":"2026-03-23T03:45:48.648384","MEAN_MOTION":14.19617698,"ECCENTRICITY":0.00234154,"INCLINATION":71.0157,"RA_OF_ASC_NODE":40.0694,"ARG_OF_PERICENTER":314.9337,"MEAN_ANOMALY":44.9888,"EPHEMERIS_TYPE":0,"CLASSIFICATION_TYPE":"U","NORAD_CAT_ID":19120,"ELEMENT_SET_NO":999,"REV_AT_EPOCH":96029,"BSTAR":-1.5822475e-5,"MEAN_MOTION_DOT":-8.2e-7,"MEAN_MOTION_DDOT":0},{"OBJECT_NAME":"COSMOS 1953","OBJECT_ID":"1988-050A","EPOCH":"2026-03-23T05:47:26.573856","MEAN_MOTION":15.28738863,"ECCENTRICITY":0.00125722,"INCLINATION":82.5081,"RA_OF_ASC_NODE":144.6167,"ARG_OF_PERICENTER":80.2703,"MEAN_ANOMALY":279.9956,"EPHEMERIS_TYPE":0,"CLASSIFICATION_TYPE":"U","NORAD_CAT_ID":19210,"ELEMENT_SET_NO":999,"REV_AT_EPOCH":3985,"BSTAR":0.0003288009,"MEAN_MOTION_DOT":9.239e-5,"MEAN_MOTION_DDOT":0}]
